satname,norad_id,inclination_deg,eccentricity,mean_motion_rev_per_day,perigee_km,apogee_km,l1,l2
STARLINK-1169,45061,53.0545,0.00013,15.06414739,546.2660959542973,548.0666748344993,1 45061U 20006T   25276.39092427  .00025110  00000+0  16979-2 0  9994,2 45061  53.0545 272.7648 0001300  88.4153 271.6985 15.06414739312755
STARLINK-1171,45062,53.0527,0.0001264,15.06395174,546.350983045384,548.1017149000045,1 45062U 20006U   25276.37618067  .00016617  00000+0  11320-2 0  9994,2 45062  53.0527 272.8256 0001264 112.6242 247.4881 15.06395174312757
STARLINK-1133,45064,53.0527,0.0001323,15.06397148,546.3040741506584,548.1365236919528,1 45064U 20006W   25276.32271766  .00002895  00000+0  21316-3 0  9992,2 45064  53.0527 253.0642 0001323  99.6734 260.4405 15.06397148313026
STARLINK-1150,45067,53.0373,0.0004583,16.16990483,224.70820593479857,230.76314883088799,1 45067U 20006Z   25276.63569163  .01641690  24171-2  10870-2 0  9993,2 45067  53.0373 188.4781 0004583 232.3372 127.7250 16.16990483313956
STARLINK-1167,45071,53.0528,0.0001505,15.06393033,546.190642700556,548.2751790437278,1 45071U 20006AD  25276.34851907  .00001001  00000+0  86136-4 0  9993,2 45071  53.0528 252.9520 0001505  88.6757 271.4404 15.06393033313023
STARLINK-1168,45072,53.053,0.0001399,15.06379461,546.3056426604298,548.2433728002916,1 45072U 20006AE  25276.35221356  .00004383  00000+0  31316-3 0  9999,2 45072  53.0530 252.9349 0001399  95.8162 264.2987 15.06379461313022
STARLINK-1172,45074,53.0538,0.0001494,15.06389307,546.2096786662669,548.2789826078615,1 45074U 20006AG  25276.62865527  .00000865  00000+0  76981-4 0  9994,2 45074  53.0538 251.6949 0001494  92.1669 267.9491 15.06389307313066
STARLINK-1153,45080,53.0531,0.0001563,15.06398491,546.1337501073294,548.2986155122753,1 45080U 20006AN  25276.34115262  .00000421  00000+0  47149-4 0  9996,2 45080  53.0531 252.9832 0001563  93.0457 267.0710 15.06398491313028
STARLINK-1151,45081,53.0531,0.0001298,15.06408967,546.2851688354876,548.082982186691,1 45081U 20006AP  25276.32640632 -.00008894  00000+0 -57880-3 0  9995,2 45081  53.0531 253.1237 0001298  99.5209 260.5927 15.06408967313020
STARLINK-1190,45083,53.0453,0.0007686,15.77549365,332.22488719014746,342.5479898198182,1 45083U 20006AR  25276.66670139  .00248821  00000+0  14252-2 0  9998,2 45083  53.0453 217.6619 0007686  84.9970 157.6706 15.77549365  5883
STARLINK-1173,45084,53.0422,0.0004973,15.90678572,297.0616174973338,303.7040733355843,1 45084U 20006AS  25276.66670139  .00421078  77984-4  13358-2 0  9992,2 45084  53.0422 180.5761 0004973  71.6749 170.0264 15.90678572  5953
STARLINK-1179,45085,53.0316,0.000296,16.19710133,218.38585805707135,222.2921558531889,1 45085U 20006AT  25276.04737152  .02498562  11804-4  12872-2 0  9997,2 45085  53.0316 172.6187 0002960 240.8666 119.2076 16.19710133314122
STARLINK-1185,45087,53.0534,0.0001629,15.06396708,546.0935065388458,548.3497883861901,1 45087U 20006AV  25276.56784134  .00010358  00000+0  71331-3 0  9996,2 45087  53.0534 231.9641 0001629  93.6216 266.4959 15.06396708313347
STARLINK-1183,45088,53.0525,0.0001566,15.06391383,546.1534542081172,548.3224816480724,1 45088U 20006AW  25276.25821629  .00001907  00000+0  14692-3 0  9991,2 45088  53.0525 233.3544 0001566  72.6002 287.5158 15.06391383313299
STARLINK-1176,45090,53.0473,0.0002089,15.87733257,307.24272496189315,310.03646022227804,1 45090U 20006AY  25276.66670139  .00367491  00000+0  12893-2 0  9990,2 45090  53.0473 178.5394 0002089  58.6115 226.4180 15.87733257  6012
STARLINK-1142,45093,53.0371,0.0005444,15.53500578,402.82120502645284,410.208333873029,1 45093U 20006BB  25276.66670139  .00180177  00000+0  27315-2 0  9992,2 45093  53.0371 174.8662 0005444 127.9632 235.8498 15.53500578  5938
STARLINK-1146,45094,53.0308,0.0005933,16.36427762,171.43426713451572,179.21060209963343,1 45094U 20006BC  25276.95052647  .07391229  12207-4  81287-3 0  9998,2 45094  53.0308 168.5564 0005933 230.4657 129.5864 16.36427762314260
STARLINK-1147,45095,53.0374,0.0002543,16.02636298,265.4312815879657,268.8110598936046,1 45095U 20006BD  25276.62682930  .00611207  18404-3  10039-2 0  9991,2 45095  53.0374 174.3783 0002543 100.8814 259.2503 16.02636298314159
STARLINK-1152,45096,53.0446,0.0008256,15.22248187,493.3832295765733,504.7388589872917,1 45096U 20006BE  25276.56934815  .00092702  00000+0  39405-2 0  9997,2 45096  53.0446 217.4159 0008256  86.6761 273.5179 15.22248187313542
STARLINK-1184,45098,53.0558,0.0001421,15.06397858,546.2340299045918,548.2022158305108,1 45098U 20006BG  25276.60469996  .00002789  00000+0  20607-3 0  9998,2 45098  53.0558 231.8007 0001421  91.1079 269.0073 15.06397858313343
STARLINK-1193,45100,53.0526,9.13e-05,15.06411613,546.5436849207117,547.808247068303,1 45100U 20006BJ  25276.60100494  .00020836  00000+0  14131-2 0  9994,2 45100  53.0526 231.8168 0000913 148.3432 211.7612 15.06411613313342
STARLINK-1143,45179,53.0567,0.0004882,15.36199417,454.0231251401683,460.6973046207768,1 45179U 20012B   25276.66670139  .00064821  00000+0  18058-2 0  9995,2 45179  53.0567   1.4908 0004882 286.7291 182.6899 15.36199417  5771
STARLINK-1202,45183,53.0552,0.0001452,15.06424699,546.130310475588,548.1414097141587,1 45183U 20012F   25276.59731825  .00021497  00000+0  14567-2 0  9995,2 45183  53.0552  31.8340 0001452  82.0847 278.0307 15.06424699311168
STARLINK-1216,45185,53.0545,0.0001362,15.06407447,546.2455046848909,548.1319634148467,1 45185U 20012H   25276.58994146  .00006042  00000+0  42408-3 0  9998,2 45185  53.0545  31.8660 0001362  95.9944 264.1200 15.06407447311102
STARLINK-1225,45187,53.054,0.0001454,15.06404568,546.190614066878,548.2045013562611,1 45187U 20012K   25276.47567911  .00003240  00000+0  23627-3 0  9993,2 45187  53.0540  32.3794 0001454  94.8325 265.2830 15.06404568311131
STARLINK-1230,45189,53.0558,0.000153,15.06406605,546.131739406399,548.2508898706792,1 45189U 20012M   25276.61205238  .00004195  00000+0  30028-3 0  9995,2 45189  53.0558  31.7694 0001530  91.5088 268.6076 15.06406605308385
STARLINK-1234,45190,53.0552,0.0001695,15.06404706,546.0232906277715,548.3709788994565,1 45190U 20012N   25276.63051251  .00019338  00000+0  13134-2 0  9996,2 45190  53.0552 351.6837 0001695 108.9102 251.2071 15.06404706311620
STARLINK-1269,45197,53.0546,0.0001116,15.06360042,546.5611435938636,548.1069087269025,1 45197U 20012V   25276.62313532 -.00009065  00000+0 -59107-3 0  9994,2 45197  53.0546  31.7214 0001116  82.0894 278.0222 15.06360042311138
STARLINK-1154,45198,53.0568,0.0001343,15.06392233,546.3052852685842,548.1654402852264,1 45198U 20012W   25276.48120728 -.00001430  00000+0 -77115-4 0  9990,2 45198  53.0568  12.3570 0001343  61.8971 298.2153 15.06392233311365
STARLINK-1199,45201,53.056,0.0001331,15.06425474,546.2117313958779,548.055238398957,1 45201U 20012Z   25276.55862288  .00023730  00000+0  16055-2 0  9996,2 45201  53.0560  12.0087 0001331  95.9464 264.1677 15.06425474311439
STARLINK-1209,45206,53.0559,0.0001453,15.06417183,546.1526495251273,548.1651405122193,1 45206U 20012AE  25276.63419131  .00023857  00000+0  16143-2 0  9993,2 45206  53.0559 351.6724 0001453 102.7548 257.3604 15.06417183310775
STARLINK-1210,45207,53.0272,0.0012757,15.4969716,408.9419337634363,426.28060589908455,1 45207U 20012AF  25276.50881012  .00105087  00000+0  18413-2 0  9999,2 45207  53.0272 321.3985 0012757 310.9389  49.0514 15.49697160312147
STARLINK-1231,45212,53.0529,0.000262,15.10181793,533.8336906258655,537.456512447071,1 45212U 20012AL  25276.52955036  .00037549  00000+0  22792-2 0  9997,2 45212  53.0529  11.4059 0002620 274.5098  85.5593 15.10181793311393
STARLINK-1271,45217,53.0552,0.0001498,15.06422144,546.1062835515177,548.1810976464212,1 45217U 20012AR  25276.54386916  .00018112  00000+0  12309-2 0  9997,2 45217  53.0552  12.0727 0001498 103.8766 256.2389 15.06422144311439
STARLINK-1191,45222,53.0541,0.0001524,15.0640852,546.1300263477633,548.2408646291478,1 45222U 20012AW  25276.48675010  .00006741  00000+0  47091-3 0  9994,2 45222  53.0541 352.3288 0001524 100.1387 259.9774 15.06408520311704
STARLINK-1212,45223,53.0567,0.0001519,15.06415893,546.1108955635336,548.214801657542,1 45223U 20012AX  25276.50526530  .00022052  00000+0  14940-2 0  9999,2 45223  53.0567 352.9035 0001519 100.9589 259.1571 15.06415893311703
STARLINK-1215,45225,53.0552,0.0001408,15.06406301,546.2171599902158,548.1673327059889,1 45225U 20012AZ  25276.59364192  .00007484  00000+0  52069-3 0  9991,2 45225  53.0552 351.8502 0001408 111.9213 248.1926 15.06406301311671
STARLINK-1217,45226,53.0396,0.0002168,15.97888033,278.83576125430045,281.7228505645435,1 45226U 20012BA  25276.66670139  .00439617  91636-4  94962-3 0  9996,2 45226  53.0396 294.7439 0002168  25.8544 151.8635 15.97888033  5927
STARLINK-1221,45227,53.0676,0.0002164,15.35628349,457.5751936722754,460.53433026685525,1 45227U 20012BB  25276.34404305  .00026857  00000+0  77238-3 0  9997,2 45227  53.0676 291.6643 0002164 228.2315 131.8503 15.35628349312481
STARLINK-1222,45228,53.0553,0.0001409,15.06448182,546.0881301781337,548.0396517892141,1 45228U 20012BC  25276.49411357  .00027603  00000+0  18623-2 0  9991,2 45228  53.0553 352.2936 0001409  84.7838 275.3312 15.06448182311597
STARLINK-1226,45229,53.0554,0.000124,15.06410521,546.3205735534666,548.0380519990358,1 45229U 20012BD  25276.58996408  .00018885  00000+0  12829-2 0  9991,2 45229  53.0554 351.8662 0001240  84.8769 275.2362 15.06410521311610
STARLINK-1227,45230,53.0547,0.0001544,15.06412089,546.1052390454897,548.243775238896,1 45230U 20012BE  25276.58627520  .00015091  00000+0  10295-2 0  9990,2 45230  53.0547 351.8834 0001544 103.9658 256.1503 15.06412089311731
STARLINK-1238,45233,53.03,0.0003775,16.219643,211.73537147783463,216.7126040235862,1 45233U 20012BH  25276.48478819  .03114061  11885-4  13418-2 0  9995,2 45233  53.0300 310.3829 0003775   2.1072 357.9982 16.21964300312270
